{"type": "FeatureCollection", "features": [{"type": "Feature", "properties": {"norad_id": 24946, "name": "IRIDIUM 33", "group": "iridium-33-debris", "lat": -38.49104418734545, "lon": 67.05635994568894, "alt_km": 782.7439851374111, "timestamp": "2025-12-08T15:42:50.180036+00:00", "meta": {"OBJECT_NAME": "IRIDIUM 33", "OBJECT_ID": "1997-051C", "EPOCH": "2025-12-08T07:31:33.752640", "MEAN_MOTION": 14.3503278, "ECCENTRICITY": 0.0006551, "INCLINATION": 86.387, "RA_OF_ASC_NODE": 70.0794, "ARG_OF_PERICENTER": 216.8885, "MEAN_ANOMALY": 143.1862, "EPHEMERIS_TYPE": 0, "CLASSIFICATION_TYPE": "U", "NORAD_CAT_ID": 24946, "ELEMENT_SET_NO": 999, "REV_AT_EPOCH": 47771, "BSTAR": 0.00023633187, "MEAN_MOTION_DOT": 6.93e-06, "MEAN_MOTION_DDOT": 0}, "tle": {"line1": "1 24946U 97051C   25342.31358510  .00000693  00000+0  23633-3 0  9996", "line2": "2 24946  86.3870  70.0794 0006551 216.8885 143.1862 14.35032780477715"}}, "geometry": {"type": "Point", "coordinates": [67.05635994568894, -38.49104418734545]}}, {"type": "Feature", "properties": {"norad_id": 33773, "name": "IRIDIUM 33 DEB", "group": "iridium-33-debris", "lat": 22.04030487789939, "lon": -119.13929664658461, "alt_km": 739.0085789305658, "timestamp": "2025-12-08T15:42:50.180083+00:00", "meta": {"OBJECT_NAME": "IRIDIUM 33 DEB", "OBJECT_ID": "1997-051L", "EPOCH": "2025-12-08T06:39:55.415808", "MEAN_MOTION": 14.43242992, "ECCENTRICITY": 0.00120848, "INCLINATION": 86.4014, "RA_OF_ASC_NODE": 62.4803, "ARG_OF_PERICENTER": 159.7195, "MEAN_ANOMALY": 200.4489, "EPHEMERIS_TYPE": 0, "CLASSIFICATION_TYPE": "U", "NORAD_CAT_ID": 33773, "ELEMENT_SET_NO": 999, "REV_AT_EPOCH": 88283, "BSTAR": 0.00058989165, "MEAN_MOTION_DOT": 2.005e-05, "MEAN_MOTION_DDOT": 0}, "tle": {"line1": "1 33773U 97051L   25342.27772472  .00002005  00000+0  58989-3 0  9997", "line2": "2 33773  86.4014  62.4803 0012084 159.7195 200.4489 14.43242992882839"}}, "geometry": {"type": "Point", "coordinates": [-119.13929664658461, 22.04030487789939]}}, {"type": "Feature", "properties": {"norad_id": 33775, "name": "IRIDIUM 33 DEB", "group": "iridium-33-debris", "lat": -85.71194997773439, "lon": -70.70561690541955, "alt_km": 762.9116284468992, "timestamp": "2025-12-08T15:42:50.180100+00:00", "meta": {"OBJECT_NAME": "IRIDIUM 33 DEB", "OBJECT_ID": "1997-051N", "EPOCH": "2025-12-08T06:28:37.020288", "MEAN_MOTION": 14.41454462, "ECCENTRICITY": 0.00137722, "INCLINATION": 86.3641, "RA_OF_ASC_NODE": 51.4617, "ARG_OF_PERICENTER": 168.5909, "MEAN_ANOMALY": 263.042, "EPHEMERIS_TYPE": 0, "CLASSIFICATION_TYPE": "U", "NORAD_CAT_ID": 33775, "ELEMENT_SET_NO": 999, "REV_AT_EPOCH": 88076, "BSTAR": 0.00063285895, "MEAN_MOTION_DOT": 2.074e-05, "MEAN_MOTION_DDOT": 0}, "tle": {"line1": "1 33775U 97051N   25342.26987292  .00002074  00000+0  63286-3 0  9998", "line2": "2 33775  86.3641  51.4617 0013772 168.5909 263.0420 14.41454462880768"}}, "geometry": {"type": "Point", "coordinates": [-70.70561690541955, -85.71194997773439]}}, {"type": "Feature", "properties": {"norad_id": 33776, "name": "IRIDIUM 33 DEB", "group": "iridium-33-debris", "lat": -4.789490908995017, "lon": -97.20688434816435, "alt_km": 758.728294622847, "timestamp": "2025-12-08T15:42:50.180113+00:00", "meta": {"OBJECT_NAME": "IRIDIUM 33 DEB", "OBJECT_ID": "1997-051P", "EPOCH": "2025-12-08T06:47:28.218336", "MEAN_MOTION": 14.38223227, "ECCENTRICITY": 0.00138237, "INCLINATION": 86.4037, "RA_OF_ASC_NODE": 82.6473, "ARG_OF_PERICENTER": 205.5419, "MEAN_ANOMALY": 215.4704, "EPHEMERIS_TYPE": 0, "CLASSIFICATION_TYPE": "U", "NORAD_CAT_ID": 33776, "ELEMENT_SET_NO": 999, "REV_AT_EPOCH": 88018, "BSTAR": 0.0006296124, "MEAN_MOTION_DOT": 1.933e-05, "MEAN_MOTION_DDOT": 0}, "tle": {"line1": "1 33776U 97051P   25342.28296549  .00001933  00000+0  62961-3 0  9991", "line2": "2 33776  86.4037  82.6473 0013823 205.5419 215.4704 14.38223227880181"}}, "geometry": {"type": "Point", "coordinates": [-97.20688434816435, -4.789490908995017]}}, {"type": "Feature", "properties": {"norad_id": 33777, "name": "IRIDIUM 33 DEB", "group": "iridium-33-debris", "lat": 76.97303706964678, "lon": 52.86759249595261, "alt_km": 703.8995528548603, "timestamp": "2025-12-08T15:42:50.180126+00:00", "meta": {"OBJECT_NAME": "IRIDIUM 33 DEB", "OBJECT_ID": "1997-051Q", "EPOCH": "2025-12-08T05:27:34.689312", "MEAN_MOTION": 14.55562851, "ECCENTRICITY": 0.00050859, "INCLINATION": 86.3784, "RA_OF_ASC_NODE": 37.1661, "ARG_OF_PERICENTER": 270.4985, "MEAN_ANOMALY": 89.5639, "EPHEMERIS_TYPE": 0, "CLASSIFICATION_TYPE": "U", "NORAD_CAT_ID": 33777, "ELEMENT_SET_NO": 999, "REV_AT_EPOCH": 88468, "BSTAR": 0.0013169276, "MEAN_MOTION_DOT": 5.76e-05, "MEAN_MOTION_DDOT": 0}, "tle": {"line1": "1 33777U 97051Q   25342.22748483  .00005760  00000+0  13169-2 0  9992", "line2": "2 33777  86.3784  37.1661 0005085 270.4985  89.5639 14.55562851884688"}}, "geometry": {"type": "Point", "coordinates": [52.86759249595261, 76.97303706964678]}}, {"type": "Feature", "properties": {"norad_id": 33850, "name": "IRIDIUM 33 DEB", "group": "iridium-33-debris", "lat": -58.511315091102645, "lon": -142.06873265765682, "alt_km": 755.1047108496405, "timestamp": "2025-12-08T15:42:50.180138+00:00", "meta": {"OBJECT_NAME": "IRIDIUM 33 DEB", "OBJECT_ID": "1997-051T", "EPOCH": "2025-12-08T04:54:50.357664", "MEAN_MOTION": 14.42132512, "ECCENTRICITY": 0.00117815, "INCLINATION": 86.3419, "RA_OF_ASC_NODE": 32.1296, "ARG_OF_PERICENTER": 175.0794, "MEAN_ANOMALY": 248.6747, "EPHEMERIS_TYPE": 0, "CLASSIFICATION_TYPE": "U", "NORAD_CAT_ID": 33850, "ELEMENT_SET_NO": 999, "REV_AT_EPOCH": 88087, "BSTAR": 0.00050349407, "MEAN_MOTION_DOT": 1.676e-05, "MEAN_MOTION_DDOT": 0}, "tle": {"line1": "1 33850U 97051T   25342.20474951  .00001676  00000+0  50349-3 0  9992", "line2": "2 33850  86.3419  32.1296 0011781 175.0794 248.6747 14.42132512880870"}}, "geometry": {"type": "Point", "coordinates": [-142.06873265765682, -58.511315091102645]}}, {"type": "Feature", "properties": {"norad_id": 33853, "name": "IRIDIUM 33 DEB", "group": "iridium-33-debris", "lat": 7.769249403934689, "lon": 171.05581326251374, "alt_km": 860.7447922506426, "timestamp": "2025-12-08T15:42:50.180151+00:00", "meta": {"OBJECT_NAME": "IRIDIUM 33 DEB", "OBJECT_ID": "1997-051W", "EPOCH": "2025-12-08T01:24:38.034720", "MEAN_MOTION": 13.99017813, "ECCENTRICITY": 0.02068972, "INCLINATION": 85.9997, "RA_OF_ASC_NODE": 351.864, "ARG_OF_PERICENTER": 250.3093, "MEAN_ANOMALY": 164.3037, "EPHEMERIS_TYPE": 0, "CLASSIFICATION_TYPE": "U", "NORAD_CAT_ID": 33853, "ELEMENT_SET_NO": 999, "REV_AT_EPOCH": 85280, "BSTAR": 0.002745939, "MEAN_MOTION_DOT": 4.783e-05, "MEAN_MOTION_DDOT": 0}, "tle": {"line1": "1 33853U 97051W   25342.05877355  .00004783  00000+0  27459-2 0  9990", "line2": "2 33853  85.9997 351.8640 0206897 250.3093 164.3037 13.99017813852801"}}, "geometry": {"type": "Point", "coordinates": [171.05581326251374, 7.769249403934689]}}, {"type": "Feature", "properties": {"norad_id": 33860, "name": "IRIDIUM 33 DEB", "group": "iridium-33-debris", "lat": 17.261692009605135, "lon": -152.07979533419393, "alt_km": 675.3027952542161, "timestamp": "2025-12-08T15:42:50.180164+00:00", "meta": {"OBJECT_NAME": "IRIDIUM 33 DEB", "OBJECT_ID": "1997-051AD", "EPOCH": "2025-12-08T03:45:46.231776", "MEAN_MOTION": 14.67277261, "ECCENTRICITY": 0.00080497, "INCLINATION": 86.3837, "RA_OF_ASC_NODE": 29.2665, "ARG_OF_PERICENTER": 13.4779, "MEAN_ANOMALY": 40.4373, "EPHEMERIS_TYPE": 0, "CLASSIFICATION_TYPE": "U", "NORAD_CAT_ID": 33860, "ELEMENT_SET_NO": 999, "REV_AT_EPOCH": 88655, "BSTAR": 0.0015591643, "MEAN_MOTION_DOT": 8.818e-05, "MEAN_MOTION_DDOT": 0}, "tle": {"line1": "1 33860U 97051AD  25342.15678509  .00008818  00000+0  15592-2 0  9997", "line2": "2 33860  86.3837  29.2665 0008049  13.4779  40.4373 14.67277261886555"}}, "geometry": {"type": "Point", "coordinates": [-152.07979533419393, 17.261692009605135]}}, {"type": "Feature", "properties": {"norad_id": 33862, "name": "IRIDIUM 33 DEB", "group": "iridium-33-debris", "lat": 12.192141365305039, "lon": -141.44603723083767, "alt_km": 660.8728250797058, "timestamp": "2025-12-08T15:42:50.180175+00:00", "meta": {"OBJECT_NAME": "IRIDIUM 33 DEB", "OBJECT_ID": "1997-051AF", "EPOCH": "2025-12-08T05:26:46.118688", "MEAN_MOTION": 14.69362788, "ECCENTRICITY": 0.00538173, "INCLINATION": 86.4089, "RA_OF_ASC_NODE": 39.52, "ARG_OF_PERICENTER": 84.2667, "MEAN_ANOMALY": 341.1904, "EPHEMERIS_TYPE": 0, "CLASSIFICATION_TYPE": "U", "NORAD_CAT_ID": 33862, "ELEMENT_SET_NO": 999, "REV_AT_EPOCH": 88757, "BSTAR": 0.0015994211, "MEAN_MOTION_DOT": 9.692e-05, "MEAN_MOTION_DDOT": 0}, "tle": {"line1": "1 33862U 97051AF  25342.22692267  .00009692  00000+0  15994-2 0  9991", "line2": "2 33862  86.4089  39.5200 0053817  84.2667 341.1904 14.69362788887576"}}, "geometry": {"type": "Point", "coordinates": [-141.44603723083767, 12.192141365305039]}}, {"type": "Feature", "properties": {"norad_id": 33866, "name": "IRIDIUM 33 DEB", "group": "iridium-33-debris", "lat": 19.434468775024175, "lon": -86.5441511573675, "alt_km": 728.2069734909574, "timestamp": "2025-12-08T15:42:50.180186+00:00", "meta": {"OBJECT_NAME": "IRIDIUM 33 DEB", "OBJECT_ID": "1997-051AK", "EPOCH": "2025-12-08T06:50:03.112800", "MEAN_MOTION": 14.25251233, "ECCENTRICITY": 0.01141225, "INCLINATION": 86.3003, "RA_OF_ASC_NODE": 94.9205, "ARG_OF_PERICENTER": 175.5894, "MEAN_ANOMALY": 247.9465, "EPHEMERIS_TYPE": 0, "CLASSIFICATION_TYPE": "U", "NORAD_CAT_ID": 33866, "ELEMENT_SET_NO": 999, "REV_AT_EPOCH": 86747, "BSTAR": 0.0011353012, "MEAN_MOTION_DOT": 2.876e-05, "MEAN_MOTION_DDOT": 0}, "tle": {"line1": "1 33866U 97051AK  25342.28475825  .00002876  00000+0  11353-2 0  9992", "line2": "2 33866  86.3003  94.9205 0114122 175.5894 247.9465 14.25251233867474"}}, "geometry": {"type": "Point", "coordinates": [-86.5441511573675, 19.434468775024175]}}]}